{
  "id": "199",
  "name": "Mercury ",
  "epoch": "2000-Jan-01 12:00:00.0000",
  "elementTable": {
    "ephemerisType": "ELEMENTS",
    "table": {
      "eccentricity": 0.2056302933705567,
      "periapsis": 46001209.59230788,
      "inclination": 7.005014303275355,
      "longitudeOfAscendingNode": 48.33053855197922,
      "argumentOfPeriapsis": 29.12428165737838,
      "timeOfPeriapsis": 2451502.287121773,
      "meanMotion": 7.005014303275355,
      "meanAnomaly": 174.7958829169579,
      "trueAnomaly": 176.4950862746721,
      "semiMajorAxis": 174.7958829169579,
      "apoapsis": 69816926.99674629,
      "siderealOrbitPeriod": 7600530.070833991
    }
  },
  "vectorTable": {
    "ephemerisType": "VECTORS",
    "table": {
      "position": [-19461726355.85372, -66913275263.524, -3679854343.7495418],
      "velocity": [36994.99185727919, -11164.4159256185, -4307.62811865822],
      "range": 69783139276.14233,
      "rangeRate": 614.9432715812321
    }
  }
}
